[{"OBJECT_NAME":"ONEWEB-0380","OBJECT_ID":"2021-090AD","EPOCH":"2025-08-06T22:11:17.281248","MEAN_MOTION":13.19726887,"ECCENTRICITY":0.00017548,"INCLINATION":87.9239,"RA_OF_ASC_NODE":7.4474,"ARG_OF_PERICENTER":101.3392,"MEAN_ANOMALY":258.7938,"EPHEMERIS_TYPE":0,"CLASSIFICATION_TYPE":"U","NORAD_CAT_ID":49306,"ELEMENT_SET_NO":999,"REV_AT_EPOCH":18497,"BSTAR":-5.5460912e-5,"MEAN_MOTION_DOT":-9.0e-8,"MEAN_MOTION_DDOT":0},{"OBJECT_NAME":"ONEWEB-0381","OBJECT_ID":"2021-090AE","EPOCH":"2025-08-06T20:14:28.673088","MEAN_MOTION":13.20769488,"ECCENTRICITY":0.00020151,"INCLINATION":87.9302,"RA_OF_ASC_NODE":337.0743,"ARG_OF_PERICENTER":107.5031,"MEAN_ANOMALY":252.6322,"EPHEMERIS_TYPE":0,"CLASSIFICATION_TYPE":"U","NORAD_CAT_ID":49307,"ELEMENT_SET_NO":999,"REV_AT_EPOCH":18833,"BSTAR":-0.00011713155,"MEAN_MOTION_DOT":-3.5e-7,"MEAN_MOTION_DDOT":0},{"OBJECT_NAME":"ONEWEB-0382","OBJECT_ID":"2021-090AF","EPOCH":"2025-08-06T19:56:18.555648","MEAN_MOTION":13.20771929,"ECCENTRICITY":0.00021628,"INCLINATION":87.9293,"RA_OF_ASC_NODE":337.0687,"ARG_OF_PERICENTER":105.6822,"MEAN_ANOMALY":254.4551,"EPHEMERIS_TYPE":0,"CLASSIFICATION_TYPE":"U","NORAD_CAT_ID":49308,"ELEMENT_SET_NO":999,"REV_AT_EPOCH":18832,"BSTAR":-1.778514e-6,"MEAN_MOTION_DOT":1.2e-7,"MEAN_MOTION_DDOT":0},{"OBJECT_NAME":"ONEWEB-0383","OBJECT_ID":"2021-090AG","EPOCH":"2025-08-06T21:26:31.188192","MEAN_MOTION":13.14502284,"ECCENTRICITY":0.00020235,"INCLINATION":87.9073,"RA_OF_ASC_NODE":352.2278,"ARG_OF_PERICENTER":98.1665,"MEAN_ANOMALY":261.9694,"EPHEMERIS_TYPE":0,"CLASSIFICATION_TYPE":"U","NORAD_CAT_ID":49309,"ELEMENT_SET_NO":999,"REV_AT_EPOCH":18630,"BSTAR":0.00047606186,"MEAN_MOTION_DOT":1.89e-6,"MEAN_MOTION_DDOT":0},{"OBJECT_NAME":"ONEWEB-0384","OBJECT_ID":"2021-090AH","EPOCH":"2025-08-06T19:49:51.554496","MEAN_MOTION":13.20787103,"ECCENTRICITY":0.00023957,"INCLINATION":87.9308,"RA_OF_ASC_NODE":337.0896,"ARG_OF_PERICENTER":107.2728,"MEAN_ANOMALY":252.8668,"EPHEMERIS_TYPE":0,"CLASSIFICATION_TYPE":"U","NORAD_CAT_ID":49310,"ELEMENT_SET_NO":999,"REV_AT_EPOCH":18833,"BSTAR":2.2635538e-5,"MEAN_MOTION_DOT":2.2e-7,"MEAN_MOTION_DDOT":0},{"OBJECT_NAME":"ONEWEB-0385","OBJECT_ID":"2021-090AJ","EPOCH":"2025-08-06T21:34:01.492032","MEAN_MOTION":13.20770115,"ECCENTRICITY":0.00020104,"INCLINATION":87.9283,"RA_OF_ASC_NODE":337.0701,"ARG_OF_PERICENTER":102.2302,"MEAN_ANOMALY":257.9056,"EPHEMERIS_TYPE":0,"CLASSIFICATION_TYPE":"U","NORAD_CAT_ID":49311,"ELEMENT_SET_NO":999,"REV_AT_EPOCH":18831,"BSTAR":6.9537137e-5,"MEAN_MOTION_DOT":4.1e-7,"MEAN_MOTION_DDOT":0},{"OBJECT_NAME":"ONEWEB-0386","OBJECT_ID":"2021-090AK","EPOCH":"2025-08-06T20:09:55.926432","MEAN_MOTION":13.20769998,"ECCENTRICITY":0.00021503,"INCLINATION":87.9295,"RA_OF_ASC_NODE":337.0536,"ARG_OF_PERICENTER":103.1645,"MEAN_ANOMALY":256.9728,"EPHEMERIS_TYPE":0,"CLASSIFICATION_TYPE":"U","NORAD_CAT_ID":49312,"ELEMENT_SET_NO":999,"REV_AT_EPOCH":18832,"BSTAR":-4.1825742e-5,"MEAN_MOTION_DOT":-4.0e-8,"MEAN_MOTION_DDOT":0},{"OBJECT_NAME":"ONEWEB-0387","OBJECT_ID":"2021-090AL","EPOCH":"2025-08-06T21:36:19.009728","MEAN_MOTION":13.20772435,"ECCENTRICITY":0.00018692,"INCLINATION":87.9283,"RA_OF_ASC_NODE":337.0988,"ARG_OF_PERICENTER":109.1258,"MEAN_ANOMALY":251.0078,"EPHEMERIS_TYPE":0,"CLASSIFICATION_TYPE":"U","NORAD_CAT_ID":49313,"ELEMENT_SET_NO":999,"REV_AT_EPOCH":18833,"BSTAR":0.00018758467,"MEAN_MOTION_DOT":8.9e-7,"MEAN_MOTION_DDOT":0},{"OBJECT_NAME":"ONEWEB-0388","OBJECT_ID":"2021-090AM","EPOCH":"2025-08-06T22:04:28.763040","MEAN_MOTION":13.19723531,"ECCENTRICITY":0.00019708,"INCLINATION":87.9242,"RA_OF_ASC_NODE":7.4547,"ARG_OF_PERICENTER":98.123,"MEAN_ANOMALY":262.0126,"EPHEMERIS_TYPE":0,"CLASSIFICATION_TYPE":"U","NORAD_CAT_ID":49314,"ELEMENT_SET_NO":999,"REV_AT_EPOCH":18496,"BSTAR":-0.000111011,"MEAN_MOTION_DOT":-3.2e-7,"MEAN_MOTION_DDOT":0},{"OBJECT_NAME":"ONEWEB-0389","OBJECT_ID":"2021-132A","EPOCH":"2025-08-06T14:17:01.728096","MEAN_MOTION":13.17650545,"ECCENTRICITY":0.00017394,"INCLINATION":87.9037,"RA_OF_ASC_NODE":68.4793,"ARG_OF_PERICENTER":99.9127,"MEAN_ANOMALY":260.2201,"EPHEMERIS_TYPE":0,"CLASSIFICATION_TYPE":"U","NORAD_CAT_ID":50469,"ELEMENT_SET_NO":999,"REV_AT_EPOCH":17665,"BSTAR":0.00010453287,"MEAN_MOTION_DOT":5.3e-7,"MEAN_MOTION_DDOT":0},{"OBJECT_NAME":"ONEWEB-0390","OBJECT_ID":"2021-132B","EPOCH":"2025-08-06T14:19:27.337152","MEAN_MOTION":13.17650829,"ECCENTRICITY":0.0001505,"INCLINATION":87.9032,"RA_OF_ASC_NODE":68.4856,"ARG_OF_PERICENTER":81.9418,"MEAN_ANOMALY":278.1885,"EPHEMERIS_TYPE":0,"CLASSIFICATION_TYPE":"U","NORAD_CAT_ID":50470,"ELEMENT_SET_NO":999,"REV_AT_EPOCH":17665,"BSTAR":0.00029858741,"MEAN_MOTION_DOT":1.29e-6,"MEAN_MOTION_DDOT":0},{"OBJECT_NAME":"ONEWEB-0391","OBJECT_ID":"2021-132C","EPOCH":"2025-08-06T14:21:53.589024","MEAN_MOTION":13.17648258,"ECCENTRICITY":0.00014447,"INCLINATION":87.9029,"RA_OF_ASC_NODE":68.4998,"ARG_OF_PERICENTER":114.7428,"MEAN_ANOMALY":245.3854,"EPHEMERIS_TYPE":0,"CLASSIFICATION_TYPE":"U","NORAD_CAT_ID":50471,"ELEMENT_SET_NO":999,"REV_AT_EPOCH":17665,"BSTAR":0.00018789478,"MEAN_MOTION_DOT":8.6e-7,"MEAN_MOTION_DDOT":0},{"OBJECT_NAME":"ONEWEB-0392","OBJECT_ID":"2021-132D","EPOCH":"2025-08-06T20:33:40.517280","MEAN_MOTION":13.17647521,"ECCENTRICITY":0.00016703,"INCLINATION":87.9029,"RA_OF_ASC_NODE":68.3918,"ARG_OF_PERICENTER":99.1515,"MEAN_ANOMALY":260.9806,"EPHEMERIS_TYPE":0,"CLASSIFICATION_TYPE":"U","NORAD_CAT_ID":50472,"ELEMENT_SET_NO":999,"REV_AT_EPOCH":17672,"BSTAR":-0.00012212052,"MEAN_MOTION_DOT":-3.5e-7,"MEAN_MOTION_DDOT":0},{"OBJECT_NAME":"ONEWEB-0393","OBJECT_ID":"2021-132E","EPOCH":"2025-08-06T14:26:56.350176","MEAN_MOTION":13.17651143,"ECCENTRICITY":0.00017032,"INCLINATION":87.9037,"RA_OF_ASC_NODE":68.4619,"ARG_OF_PERICENTER":91.1552,"MEAN_ANOMALY":268.9774,"EPHEMERIS_TYPE":0,"CLASSIFICATION_TYPE":"U","NORAD_CAT_ID":50473,"ELEMENT_SET_NO":999,"REV_AT_EPOCH":17668,"BSTAR":0.00013812675,"MEAN_MOTION_DOT":6.7e-7,"MEAN_MOTION_DDOT":0},{"OBJECT_NAME":"ONEWEB-0394","OBJECT_ID":"2021-132F","EPOCH":"2025-08-06T21:26:15.586944","MEAN_MOTION":13.18685098,"ECCENTRICITY":0.00018494,"INCLINATION":87.913,"RA_OF_ASC_NODE":37.865,"ARG_OF_PERICENTER":95.9058,"MEAN_ANOMALY":264.2285,"EPHEMERIS_TYPE":0,"CLASSIFICATION_TYPE":"U","NORAD_CAT_ID":50474,"ELEMENT_SET_NO":999,"REV_AT_EPOCH":18017,"BSTAR":0.00019790032,"MEAN_MOTION_DOT":9.1e-7,"MEAN_MOTION_DDOT":0},{"OBJECT_NAME":"ONEWEB-0395","OBJECT_ID":"2021-132G","EPOCH":"2025-08-06T21:36:54.637632","MEAN_MOTION":13.11418867,"ECCENTRICITY":0.00014506,"INCLINATION":87.8796,"RA_OF_ASC_NODE":83.7228,"ARG_OF_PERICENTER":86.5494,"MEAN_ANOMALY":273.58,"EPHEMERIS_TYPE":0,"CLASSIFICATION_TYPE":"U","NORAD_CAT_ID":50475,"ELEMENT_SET_NO":999,"REV_AT_EPOCH":17452,"BSTAR":-0.00020189388,"MEAN_MOTION_DOT":-5.9e-7,"MEAN_MOTION_DDOT":0},{"OBJECT_NAME":"ONEWEB-0396","OBJECT_ID":"2021-132H","EPOCH":"2025-08-06T21:16:45.850656","MEAN_MOTION":13.1868512,"ECCENTRICITY":0.00018364,"INCLINATION":87.9127,"RA_OF_ASC_NODE":37.8786,"ARG_OF_PERICENTER":94.0973,"MEAN_ANOMALY":266.0369,"EPHEMERIS_TYPE":0,"CLASSIFICATION_TYPE":"U","NORAD_CAT_ID":50476,"ELEMENT_SET_NO":999,"REV_AT_EPOCH":18021,"BSTAR":0.00010367547,"MEAN_MOTION_DOT":5.4e-7,"MEAN_MOTION_DDOT":0},{"OBJECT_NAME":"ONEWEB-0397","OBJECT_ID":"2021-132J","EPOCH":"2025-08-06T21:38:08.546784","MEAN_MOTION":13.18686606,"ECCENTRICITY":0.00019792,"INCLINATION":87.9129,"RA_OF_ASC_NODE":37.8769,"ARG_OF_PERICENTER":93.2433,"MEAN_ANOMALY":266.8926,"EPHEMERIS_TYPE":0,"CLASSIFICATION_TYPE":"U","NORAD_CAT_ID":50477,"ELEMENT_SET_NO":999,"REV_AT_EPOCH":18019,"BSTAR":0.00016360942,"MEAN_MOTION_DOT":7.7e-7,"MEAN_MOTION_DDOT":0},{"OBJECT_NAME":"ONEWEB-0398","OBJECT_ID":"2021-132K","EPOCH":"2025-08-06T20:50:31.499232","MEAN_MOTION":13.11414426,"ECCENTRICITY":0.00013749,"INCLINATION":87.8793,"RA_OF_ASC_NODE":83.6922,"ARG_OF_PERICENTER":73.4246,"MEAN_ANOMALY":286.7033,"EPHEMERIS_TYPE":0,"CLASSIFICATION_TYPE":"U","NORAD_CAT_ID":50478,"ELEMENT_SET_NO":999,"REV_AT_EPOCH":17441,"BSTAR":-0.00015058239,"MEAN_MOTION_DOT":-4.1e-7,"MEAN_MOTION_DDOT":0},{"OBJECT_NAME":"ONEWEB-0399","OBJECT_ID":"2021-132L","EPOCH":"2025-08-06T22:20:52.319040","MEAN_MOTION":13.11414149,"ECCENTRICITY":0.00019616,"INCLINATION":87.8795,"RA_OF_ASC_NODE":83.7038,"ARG_OF_PERICENTER":90.0073,"MEAN_ANOMALY":270.1279,"EPHEMERIS_TYPE":0,"CLASSIFICATION_TYPE":"U","NORAD_CAT_ID":50479,"ELEMENT_SET_NO":999,"REV_AT_EPOCH":17441,"BSTAR":0.0011061796,"MEAN_MOTION_DOT":4.05e-6,"MEAN_MOTION_DDOT":0},{"OBJECT_NAME":"ONEWEB-0400","OBJECT_ID":"2021-132M","EPOCH":"2025-08-06T21:07:16.325184","MEAN_MOTION":13.18687267,"ECCENTRICITY":0.00015961,"INCLINATION":87.9125,"RA_OF_ASC_NODE":37.8714,"ARG_OF_PERICENTER":88.1984,"MEAN_ANOMALY":271.9331,"EPHEMERIS_TYPE":0,"CLASSIFICATION_TYPE":"U","NORAD_CAT_ID":50480,"ELEMENT_SET_NO":999,"REV_AT_EPOCH":18018,"BSTAR":-8.1738522e-5,"MEAN_MOTION_DOT":-1.9e-7,"MEAN_MOTION_DDOT":0},{"OBJECT_NAME":"ONEWEB-0401","OBJECT_ID":"2021-132N","EPOCH":"2025-08-06T22:11:23.971200","MEAN_MOTION":13.18687121,"ECCENTRICITY":0.0002056,"INCLINATION":87.9127,"RA_OF_ASC_NODE":37.8583,"ARG_OF_PERICENTER":90.1185,"MEAN_ANOMALY":270.0182,"EPHEMERIS_TYPE":0,"CLASSIFICATION_TYPE":"U","NORAD_CAT_ID":50481,"ELEMENT_SET_NO":999,"REV_AT_EPOCH":18019,"BSTAR":0.00014743976,"MEAN_MOTION_DOT":7.1e-7,"MEAN_MOTION_DDOT":0},{"OBJECT_NAME":"ONEWEB-0402","OBJECT_ID":"2021-132P","EPOCH":"2025-08-06T21:19:09.504480","MEAN_MOTION":13.18686465,"ECCENTRICITY":0.00024211,"INCLINATION":87.9128,"RA_OF_ASC_NODE":37.8592,"ARG_OF_PERICENTER":89.2525,"MEAN_ANOMALY":270.8885,"EPHEMERIS_TYPE":0,"CLASSIFICATION_TYPE":"U","NORAD_CAT_ID":50482,"ELEMENT_SET_NO":999,"REV_AT_EPOCH":18021,"BSTAR":2.733226e-6,"MEAN_MOTION_DOT":1.4e-7,"MEAN_MOTION_DDOT":0}]
